OBJECT_NAME,OBJECT_ID,EPOCH,MEAN_MOTION,ECCENTRICITY,INCLINATION,RA_OF_ASC_NODE,ARG_OF_PERICENTER,MEAN_ANOMALY,EPHEMERIS_TYPE,CLASSIFICATION_TYPE,NORAD_CAT_ID,ELEMENT_SET_NO,REV_AT_EPOCH,BSTAR,MEAN_MOTION_DOT,MEAN_MOTION_DDOT
SAUDISAT 5A,2018-102A,2026-06-14T13:05:21.977664,15.28023771,.0010856,97.3073,227.1770,137.1654,223.0433,0,U,43831,999,41527,.19361E-3,.5227E-4,0
SAUDISAT 5B,2018-102C,2026-06-14T11:58:51.464928,15.28281288,.0011507,97.3181,230.1965,139.6927,220.5168,0,U,43833,999,41538,.18076E-3,.4915E-4,0
GAOFEN-10R,2019-066A,2026-06-14T12:32:23.839296,14.83055506,.0006508,98.0496,119.0824,134.8440,225.3303,0,U,44622,999,36198,.13327E-3,.103E-4,0
CARTOSAT-3,2019-081A,2026-06-14T12:32:50.931744,15.19265774,.0012935,97.4313,227.4324,157.3577,202.8231,0,U,44804,999,36306,.21553E-3,.4486E-4,0
GAOFEN-12 01,2019-082A,2026-06-14T12:16:22.787904,14.80456665,.0002352,97.8100,171.9615,73.7158,286.4313,0,U,44819,999,35369,.52454E-4,.35E-5,0
CSG-1,2019-092A,2026-06-14T11:39:45.489024,14.82151167,.000146,97.8888,349.1276,89.0087,271.1293,0,U,44873,999,35107,.55088E-4,.386E-5,0
NEMO-HD,2020-061F,2026-06-14T11:21:55.446624,15.44544590,.0002415,97.1925,227.4536,84.4603,275.6922,0,U,46277,999,32156,.21926E-3,.10094E-3,0
SENTINEL-6A,2020-086A,2026-06-14T06:35:38.393088,12.80929974,.0007952,66.0392,141.1015,270.2649,89.7455,0,U,46984,999,25995,.51124E-5,-.6E-6,0
CAS500-1,2021-022A,2026-06-14T13:28:52.177728,15.20182364,.0003928,97.3911,60.8687,315.1841,44.9076,0,U,47932,999,29036,.26625E-3,.5698E-4,0
GAOFEN-12 02,2021-026A,2026-06-14T12:31:53.486976,14.80294275,.0003533,97.9928,163.7136,233.0183,127.0706,0,U,48079,999,28136,.48723E-4,.318E-5,0
PLEIADES NEO 3,2021-034A,2026-06-14T11:37:24.814272,14.81668357,.000137,97.8937,240.2899,85.5538,274.5832,0,U,48268,999,27725,.12634E-3,.942E-5,0
PLEIADES NEO 4,2021-073E,2026-06-14T12:26:01.410432,14.81687673,.0001419,97.8942,240.3190,87.3667,272.7708,0,U,49070,999,26097,.22974E-3,.1757E-4,0
LANDSAT 9,2021-088A,2026-06-14T04:12:02.713824,14.57095086,.00014275,98.2281,235.3889,85.5211,274.6150,0,U,49260,999,25056,.74138068E-4,.288E-5,0
CSG-2,2022-008A,2026-06-14T12:28:20.959392,14.82153410,.0001402,97.8879,349.1561,85.1716,274.9657,0,U,51444,999,23619,.1953E-4,.103E-5,0
GAOFEN-12 03,2022-069A,2026-06-14T13:14:16.823904,14.80029945,.0001955,97.8292,53.4887,105.3242,254.8187,0,U,52912,999,21422,.69654E-4,.477E-5,0
SWOT,2022-173A,2026-06-14T11:41:47.347584,14.00169305,.0000247,77.6108,38.9549,94.2220,265.8960,0,U,54754,999,17877,.42309E-4,.6E-6,0
GAOFEN-12 04,2023-123A,2026-06-14T12:01:27.405696,14.80224071,.000179,97.9126,83.5573,84.2928,275.8488,0,U,57654,999,15223,.12299E-3,.883E-5,0
PARS 1,2024-039Q,2026-06-14T12:44:20.649120,15.45675806,.0011355,97.4816,146.3668,119.6978,240.5403,0,U,59065,999,12823,.21139E-3,.1013E-3,0
RESURS-P 4,2024-061A,2026-06-14T12:28:56.055072,15.32117516,.0001969,97.2754,113.4653,129.2952,230.8465,0,U,59371,999,12335,.951E-4,.2873E-4,0
LEGION 1,2024-081A,2026-06-14T10:56:38.560704,15.16650119,.0009788,97.5022,243.3418,27.1041,333.0701,0,U,59625,999,11712,.17168E-3,.3294E-4,0
LEGION 2,2024-081B,2026-06-14T11:39:45.630720,15.16629726,.0011021,97.5023,243.4690,353.5495,6.5594,0,U,59626,999,11713,.19065E-3,.3665E-4,0
ALOS-4 (DAICHI-4),2024-123A,2026-06-14T12:30:00.031680,14.79471439,.000158,97.9245,262.7320,97.9073,262.2317,0,U,60182,999,10548,.18309E-3,.1316E-4,0
LEGION 3,2024-146A,2026-06-14T11:53:06.728064,15.16020546,.000733,45.0025,44.9924,154.4635,205.6607,0,U,60452,999,10161,.17607E-3,.3179E-4,0
LEGION 4,2024-146B,2026-06-14T08:47:45.428064,15.16010952,.0013998,44.9996,137.5928,293.7060,66.2350,0,U,60453,999,10044,.18426E-3,.3343E-4,0
SENTINEL-2C,2024-157A,2026-06-14T10:41:11.531040,14.30817095,.0001067,98.5692,240.2660,80.6791,279.4513,0,U,60989,999,9259,.51185E-4,.91E-6,0
IONOSFERA-M 1,2024-199A,2026-06-14T12:30:49.500000,14.22753816,.0001877,98.7176,38.7217,113.9783,246.1591,0,U,61735,999,12732,.4454E-4,.56E-6,0
IONOSFERA-M 2,2024-199B,2026-06-14T11:38:57.016032,14.22757063,.0001158,98.7175,38.5967,41.4654,318.6611,0,U,61736,999,13044,.42575E-4,.51E-6,0
PRSC-EO1,2025-012A,2026-06-14T11:43:17.859360,15.17739382,.0004323,97.4231,238.0009,263.1554,96.9188,0,U,62725,999,7778,.35656E-3,.7132E-4,0
BIOMASS,2025-090A,2026-06-14T12:15:28.973664,14.67539729,.0001363,98.0742,352.8667,92.3225,267.8135,0,U,63772,999,6029,.167E-3,.899E-5,0
GOSAT-GW (IBUKI GW),2025-141A,2026-06-14T12:44:44.536128,14.67552464,.0001433,98.0569,102.8913,83.0615,277.0752,0,U,64694,999,5145,.20346E-3,.1106E-4,0
IONOSFERA-M 3,2025-155A,2026-06-14T12:00:56.942784,14.21486039,.0000848,98.6023,127.4733,161.9311,198.1897,0,U,64876,999,4602,.34891E-4,.33E-6,0
