SAUDISAT 5A             
1 43831U 18102A   26165.54539326  .00005227  00000+0  19361-3 0  9996
2 43831  97.3073 227.1770 0010856 137.1654 223.0433 15.28023771415275
SAUDISAT 5B             
1 43833U 18102C   26165.49920677  .00004915  00000+0  18076-3 0  9990
2 43833  97.3181 230.1965 0011507 139.6927 220.5168 15.28281288415389
GAOFEN-10R              
1 44622U 19066A   26165.52249814  .00001030  00000+0  13327-3 0  9997
2 44622  98.0496 119.0824 0006508 134.8440 225.3303 14.83055506361986
CARTOSAT-3              
1 44804U 19081A   26165.52281171  .00004486  00000+0  21553-3 0  9996
2 44804  97.4313 227.4324 0012935 157.3577 202.8231 15.19265774363061
GAOFEN-12 01            
1 44819U 19082A   26165.51137486  .00000350  00000+0  52454-4 0  9992
2 44819  97.8100 171.9615 0002352  73.7158 286.4313 14.80456665353694
CSG-1                   
1 44873U 19092A   26165.48594316  .00000386  00000+0  55088-4 0  9993
2 44873  97.8888 349.1276 0001460  89.0087 271.1293 14.82151167351078
NEMO-HD                 
1 46277U 20061F   26165.47355841  .00010094  00000+0  21926-3 0  9998
2 46277  97.1925 227.4536 0002415  84.4603 275.6922 15.44544590321568
SENTINEL-6A             
1 46984U 20086A   26165.27474992 -.00000060  00000+0  51124-5 0  9995
2 46984  66.0392 141.1015 0007952 270.2649  89.7455 12.80929974259954
CAS500-1                
1 47932U 21022A   26165.56171502  .00005698  00000+0  26625-3 0  9990
2 47932  97.3911  60.8687 0003928 315.1841  44.9076 15.20182364290369
GAOFEN-12 02            
1 48079U 21026A   26165.52214684  .00000318  00000+0  48723-4 0  9990
2 48079  97.9928 163.7136 0003533 233.0183 127.0706 14.80294275281360
PLEIADES NEO 3          
1 48268U 21034A   26165.48431498  .00000942  00000+0  12634-3 0  9992
2 48268  97.8937 240.2899 0001370  85.5538 274.5832 14.81668357277255
PLEIADES NEO 4          
1 49070U 21073E   26165.51807188  .00001757  00000+0  22974-3 0  9997
2 49070  97.8942 240.3190 0001419  87.3667 272.7708 14.81687673260970
LANDSAT 9               
1 49260U 21088A   26165.17503141  .00000288  00000+0  74138-4 0  9996
2 49260  98.2281 235.3889 0001427  85.5211 274.6150 14.57095086250565
CSG-2                   
1 51444U 22008A   26165.51968703  .00000103  00000+0  19530-4 0  9994
2 51444  97.8879 349.1561 0001402  85.1716 274.9657 14.82153410236192
GAOFEN-12 03            
1 52912U 22069A   26165.55158361  .00000477  00000+0  69654-4 0  9993
2 52912  97.8292  53.4887 0001955 105.3242 254.8187 14.80029945214228
SWOT                    
1 54754U 22173A   26165.48735356  .00000060  00000+0  42309-4 0  9998
2 54754  77.6108  38.9549 0000247  94.2220 265.8960 14.00169305178771
GAOFEN-12 04            
1 57654U 23123A   26165.50101164  .00000883  00000+0  12299-3 0  9990
2 57654  97.9126  83.5573 0001790  84.2928 275.8488 14.80224071152238
PARS 1                  
1 59065U 24039Q   26165.53079455  .00010130  00000+0  21139-3 0  9994
2 59065  97.4816 146.3668 0011355 119.6978 240.5403 15.45675806128233
RESURS-P 4              
1 59371U 24061A   26165.52009323  .00002873  00000+0  95100-4 0  9990
2 59371  97.2754 113.4653 0001969 129.2952 230.8465 15.32117516123353
LEGION 1                
1 59625U 24081A   26165.45600186  .00003294  00000+0  17168-3 0  9995
2 59625  97.5022 243.3418 0009788  27.1041 333.0701 15.16650119117120
LEGION 2                
1 59626U 24081B   26165.48594480  .00003665  00000+0  19065-3 0  9998
2 59626  97.5023 243.4690 0011021 353.5495   6.5594 15.16629726117130
ALOS-4 (DAICHI-4)       
1 60182U 24123A   26165.52083370  .00001316  00000+0  18309-3 0  9991
2 60182  97.9245 262.7320 0001580  97.9073 262.2317 14.79471439105486
LEGION 3                
1 60452U 24146A   26165.49521676  .00003179  00000+0  17607-3 0  9997
2 60452  45.0025  44.9924 0007330 154.4635 205.6607 15.16020546101613
LEGION 4                
1 60453U 24146B   26165.36649801  .00003343  00000+0  18426-3 0  9998
2 60453  44.9996 137.5928 0013998 293.7060  66.2350 15.16010952100444
SENTINEL-2C             
1 60989U 24157A   26165.44527235  .00000091  00000+0  51185-4 0  9996
2 60989  98.5692 240.2660 0001067  80.6791 279.4513 14.30817095 92592
IONOSFERA-M 1           
1 61735U 24199A   26165.52140625  .00000056  00000+0  44540-4 0  9993
2 61735  98.7176  38.7217 0001877 113.9783 246.1591 14.22753816127327
IONOSFERA-M 2           
1 61736U 24199B   26165.48538213  .00000051  00000+0  42575-4 0  9994
2 61736  98.7175  38.5967 0001158  41.4654 318.6611 14.22757063130444
PRSC-EO1                
1 62725U 25012A   26165.48840115  .00007132  00000+0  35656-3 0  9993
2 62725  97.4231 238.0009 0004323 263.1554  96.9188 15.17739382 77786
BIOMASS                 
1 63772U 25090A   26165.51075201  .00000899  00000+0  16700-3 0  9994
2 63772  98.0742 352.8667 0001363  92.3225 267.8135 14.67539729 60292
GOSAT-GW (IBUKI GW)     
1 64694U 25141A   26165.53107102  .00001106  00000+0  20346-3 0  9996
2 64694  98.0569 102.8913 0001433  83.0615 277.0752 14.67552464 51455
IONOSFERA-M 3           
1 64876U 25155A   26165.50065906  .00000033  00000+0  34891-4 0  9994
2 64876  98.6023 127.4733 0000848 161.9311 198.1897 14.21486039 46023
